{
  "type": "FeatureCollection",
  "features": [
    {
      "type": "Feature",
      "properties": {
        "norad_id": 41330,
        "name": "COSMOS 2514 (751)",
        "group": "glo-ops",
        "lat": 54.27240644328279,
        "lon": 98.79861061601028,
        "alt_km": 19130.679538123895,
        "timestamp": "2025-12-26T06:43:29.772688+00:00",
        "meta_object_name": "COSMOS 2514 (751)",
        "meta_object_id": "2016-008A",
        "meta_epoch": "2025-12-24T06:01:31.134720",
        "meta_mean_motion": 2.13102586,
        "meta_eccentricity": 0.00116213,
        "meta_inclination": 65.1271,
        "meta_ra_of_asc_node": 319.0099,
        "meta_arg_of_pericenter": 220.0868,
        "meta_mean_anomaly": 139.8285,
        "meta_ephemeris_type": 0,
        "meta_classification_type": "U",
        "meta_norad_cat_id": 41330,
        "meta_element_set_no": 999,
        "meta_rev_at_epoch": 7689,
        "meta_bstar": 0,
        "meta_mean_motion_dot": -3.3e-07,
        "meta_mean_motion_ddot": 0,
        "tle_line1": "1 41330U 16008A   25358.25105480 -.00000033  00000+0  00000+0 0  9999",
        "tle_line2": "2 41330  65.1271 319.0099 0011621 220.0868 139.8285  2.13102586 76897"
      },
      "geometry": {
        "type": "Point",
        "coordinates": [
          98.79861061601028,
          54.27240644328279
        ]
      }
    },
    {
      "type": "Feature",
      "properties": {
        "norad_id": 42939,
        "name": "COSMOS 2522 (752)",
        "group": "glo-ops",
        "lat": -51.68590138178875,
        "lon": 55.781629991062175,
        "alt_km": 19120.490706900848,
        "timestamp": "2025-12-26T06:43:29.772701+00:00",
        "meta_object_name": "COSMOS 2522 (752)",
        "meta_object_id": "2017-055A",
        "meta_epoch": "2025-12-24T02:08:41.637984",
        "meta_mean_motion": 2.13102066,
        "meta_eccentricity": 0.00062718,
        "meta_inclination": 64.0767,
        "meta_ra_of_asc_node": 197.8423,
        "meta_arg_of_pericenter": 223.2382,
        "meta_mean_anomaly": 136.7706,
        "meta_ephemeris_type": 0,
        "meta_classification_type": "U",
        "meta_norad_cat_id": 42939,
        "meta_element_set_no": 999,
        "meta_rev_at_epoch": 6424,
        "meta_bstar": 0,
        "meta_mean_motion_dot": 9.8e-07,
        "meta_mean_motion_ddot": 0,
        "tle_line1": "1 42939U 17055A   25358.08937081  .00000098  00000+0  00000+0 0  9999",
        "tle_line2": "2 42939  64.0767 197.8423 0006271 223.2382 136.7706  2.13102066 64248"
      },
      "geometry": {
        "type": "Point",
        "coordinates": [
          55.781629991062175,
          -51.68590138178875
        ]
      }
    },
    {
      "type": "Feature",
      "properties": {
        "norad_id": 43508,
        "name": "COSMOS 2527 (756)",
        "group": "glo-ops",
        "lat": -65.48557924962539,
        "lon": -8.464320153550178,
        "alt_km": 19119.781405660615,
        "timestamp": "2025-12-26T06:43:29.772712+00:00",
        "meta_object_name": "COSMOS 2527 (756)",
        "meta_object_id": "2018-053A",
        "meta_epoch": "2025-12-23T02:40:53.485824",
        "meta_mean_motion": 2.13102391,
        "meta_eccentricity": 0.00089977,
        "meta_inclination": 65.4775,
        "meta_ra_of_asc_node": 79.785,
        "meta_arg_of_pericenter": 227.5336,
        "meta_mean_anomaly": 132.4355,
        "meta_ephemeris_type": 0,
        "meta_classification_type": "U",
        "meta_norad_cat_id": 43508,
        "meta_element_set_no": 999,
        "meta_rev_at_epoch": 5852,
        "meta_bstar": 0,
        "meta_mean_motion_dot": 1e-08,
        "meta_mean_motion_ddot": 0,
        "tle_line1": "1 43508U 18053A   25357.11173016  .00000001  00000+0  00000+0 0  9998",
        "tle_line2": "2 43508  65.4775  79.7850 0008997 227.5336 132.4355  2.13102391 58528"
      },
      "geometry": {
        "type": "Point",
        "coordinates": [
          -8.464320153550178,
          -65.48557924962539
        ]
      }
    },
    {
      "type": "Feature",
      "properties": {
        "norad_id": 43687,
        "name": "COSMOS 2529 (757)",
        "group": "glo-ops",
        "lat": -14.371865654310673,
        "lon": 25.5278396690006,
        "alt_km": 19122.799198094173,
        "timestamp": "2025-12-26T06:43:29.772725+00:00",
        "meta_object_name": "COSMOS 2529 (757)",
        "meta_object_id": "2018-086A",
        "meta_epoch": "2025-12-23T05:01:04.327104",
        "meta_mean_motion": 2.13102131,
        "meta_eccentricity": 0.0006897,
        "meta_inclination": 64.2927,
        "meta_ra_of_asc_node": 198.5346,
        "meta_arg_of_pericenter": 253.659,
        "meta_mean_anomaly": 106.3281,
        "meta_ephemeris_type": 0,
        "meta_classification_type": "U",
        "meta_norad_cat_id": 43687,
        "meta_element_set_no": 999,
        "meta_rev_at_epoch": 5553,
        "meta_bstar": 0,
        "meta_mean_motion_dot": 9.5e-07,
        "meta_mean_motion_ddot": 0,
        "tle_line1": "1 43687U 18086A   25357.20907786  .00000095  00000+0  00000+0 0  9994",
        "tle_line2": "2 43687  64.2927 198.5346 0006897 253.6590 106.3281  2.13102131 55539"
      },
      "geometry": {
        "type": "Point",
        "coordinates": [
          25.5278396690006,
          -14.371865654310673
        ]
      }
    },
    {
      "type": "Feature",
      "properties": {
        "norad_id": 44299,
        "name": "COSMOS 2534 (758)",
        "group": "glo-ops",
        "lat": -26.350049012064048,
        "lon": -175.32343904185637,
        "alt_km": 19118.518453795325,
        "timestamp": "2025-12-26T06:43:29.772736+00:00",
        "meta_object_name": "COSMOS 2534 (758)",
        "meta_object_id": "2019-030A",
        "meta_epoch": "2025-12-25T02:45:29.854368",
        "meta_mean_motion": 2.13102173,
        "meta_eccentricity": 0.00086185,
        "meta_inclination": 64.3664,
        "meta_ra_of_asc_node": 198.4757,
        "meta_arg_of_pericenter": 283.7292,
        "meta_mean_anomaly": 232.7894,
        "meta_ephemeris_type": 0,
        "meta_classification_type": "U",
        "meta_norad_cat_id": 44299,
        "meta_element_set_no": 999,
        "meta_rev_at_epoch": 5121,
        "meta_bstar": 0,
        "meta_mean_motion_dot": 1.03e-06,
        "meta_mean_motion_ddot": 0,
        "tle_line1": "1 44299U 19030A   25359.11492887  .00000103  00000+0  00000+0 0  9997",
        "tle_line2": "2 44299  64.3664 198.4757 0008618 283.7292 232.7894  2.13102173 51210"
      },
      "geometry": {
        "type": "Point",
        "coordinates": [
          -175.32343904185637,
          -26.350049012064048
        ]
      }
    },
    {
      "type": "Feature",
      "properties": {
        "norad_id": 44850,
        "name": "COSMOS 2544 (759)",
        "group": "glo-ops",
        "lat": -41.49486504991003,
        "lon": 55.72553577060622,
        "alt_km": 19118.362256603177,
        "timestamp": "2025-12-26T06:43:29.772747+00:00",
        "meta_object_name": "COSMOS 2544 (759)",
        "meta_object_id": "2019-088A",
        "meta_epoch": "2025-12-23T01:21:04.162752",
        "meta_mean_motion": 2.13102153,
        "meta_eccentricity": 0.0014323,
        "meta_inclination": 65.465,
        "meta_ra_of_asc_node": 79.6136,
        "meta_arg_of_pericenter": 250.3939,
        "meta_mean_anomaly": 109.4967,
        "meta_ephemeris_type": 0,
        "meta_classification_type": "U",
        "meta_norad_cat_id": 44850,
        "meta_element_set_no": 999,
        "meta_rev_at_epoch": 4696,
        "meta_bstar": 0,
        "meta_mean_motion_dot": 1e-08,
        "meta_mean_motion_ddot": 0,
        "tle_line1": "1 44850U 19088A   25357.05629818  .00000001  00000+0  00000+0 0  9997",
        "tle_line2": "2 44850  65.4650  79.6136 0014323 250.3939 109.4967  2.13102153 46964"
      },
      "geometry": {
        "type": "Point",
        "coordinates": [
          55.72553577060622,
          -41.49486504991003
        ]
      }
    },
    {
      "type": "Feature",
      "properties": {
        "norad_id": 45358,
        "name": "COSMOS 2545 (760)",
        "group": "glo-ops",
        "lat": 15.35634018182751,
        "lon": 130.94212031778386,
        "alt_km": 19127.226224544447,
        "timestamp": "2025-12-26T06:43:29.772758+00:00",
        "meta_object_name": "COSMOS 2545 (760)",
        "meta_object_id": "2020-018A",
        "meta_epoch": "2025-12-25T03:05:50.090208",
        "meta_mean_motion": 2.13102661,
        "meta_eccentricity": 0.00112965,
        "meta_inclination": 64.4622,
        "meta_ra_of_asc_node": 318.5356,
        "meta_arg_of_pericenter": 250.6844,
        "meta_mean_anomaly": 109.1968,
        "meta_ephemeris_type": 0,
        "meta_classification_type": "U",
        "meta_norad_cat_id": 45358,
        "meta_element_set_no": 999,
        "meta_rev_at_epoch": 4495,
        "meta_bstar": 0,
        "meta_mean_motion_dot": -3.4e-07,
        "meta_mean_motion_ddot": 0,
        "tle_line1": "1 45358U 20018A   25359.12905197 -.00000034  00000+0  00000+0 0  9990",
        "tle_line2": "2 45358  64.4622 318.5356 0011296 250.6844 109.1968  2.13102661 44958"
      },
      "geometry": {
        "type": "Point",
        "coordinates": [
          130.94212031778386,
          15.35634018182751
        ]
      }
    }
  ]
}